STARLINK-37998          
1 69679U 26145C   26199.83335647 -.00105205  00000+0 -71221-3 0  9991
2 69679  97.2839  46.8576 0001446  93.3692 132.3440 15.75220628  5011
STARLINK-37994          
1 69680U 26145D   26199.54085156  .00145487  00000+0  95752-3 0  9997
2 69680  97.2831  46.5456 0001274 111.3981 248.7420 15.75243900  3702
STARLINK-37992          
1 69681U 26145E   26199.54049907  .00191905  00000+0  12550-2 0  9992
2 69681  97.2836  46.5461 0001304 109.2353 250.9053 15.75260476  3701
STARLINK-37997          
1 69682U 26145F   26198.00002315 -.00003501  00000+0 -22625-4 0  9997
2 69682  97.2838  44.9322 0001192  99.5818 174.9569 15.75175815  4715
STARLINK-37990          
1 69683U 26145G   26199.54014590  .00125169  00000+0  82606-3 0  9993
2 69683  97.2833  46.5468 0001619 108.6389 251.5052 15.75238562  3705
STARLINK-37951          
1 69684U 26145H   26199.83335647 -.00158101  00000+0 -10752-2 0  9991
2 69684  97.2840  46.8578 0001490  88.9466 138.7298 15.75267004  5019
STARLINK-37957          
1 69685U 26145J   26199.53802746  .00207434  00000+0  13545-2 0  9993
2 69685  97.2833  46.5496 0001293 105.7908 254.3500 15.75251212  3707
STARLINK-37968          
1 69686U 26145K   26199.84977664  .00123660  00000+0  82958-3 0  9993
2 69686  97.2836  46.8912 0017760 108.8766 251.4426 15.74647428  3756
STARLINK-37977          
1 69687U 26145L   26199.53132342  .00193204  00000+0  12633-2 0  9999
2 69687  97.2835  46.5594 0001613 112.1942 247.9495 15.75259432  3709
STARLINK-37908          
1 69688U 26145M   26199.02098493  .00219435  00000+0  14325-2 0  9997
2 69688  97.2836  46.0301 0001682  78.6283 281.5171 15.75224120  3624
STARLINK-37979          
1 69689U 26145N   26199.52885273  .00110607  00000+0  73170-3 0  9998
2 69689  97.2841  46.5634 0001272 107.2217 252.9188 15.75226628  3700
STARLINK-37940          
1 69690U 26145P   26199.08310577  .00206266  00000+0  13387-2 0  9991
2 69690  97.2842  46.0992 0004687  57.8817 302.2903 15.75385283  3633
STARLINK-37961          
1 69691U 26145Q   26199.52461722  .00183660  00000+0  12019-2 0  9993
2 69691  97.2848  46.5693 0002379 115.2848 244.8664 15.75265952  3705
STARLINK-37787          
1 69692U 26145R   26199.52249666  .00210196  00000+0  13706-2 0  9994
2 69692  97.2837  46.5713 0001320 124.0872 236.0519 15.75275704  3705
STARLINK-37962          
1 69693U 26145S   26199.52073579  .00199536  00000+0  13039-2 0  9996
2 69693  97.2837  46.5741 0001147  98.3652 261.7743 15.75255701  3702
STARLINK-37953          
1 69694U 26145T   26199.84119838  .00139526  00000+0  92025-3 0  9997
2 69694  97.2842  46.9034 0001851  98.4396 261.7079 15.75211066  3759
STARLINK-37926          
1 69695U 26145U   26199.52285295  .00189522  00000+0  12396-2 0  9997
2 69695  97.2840  46.5720 0001473 108.5665 251.5760 15.75263200  3704
STARLINK-37959          
1 69696U 26145V   26199.52179443  .00178021  00000+0  11669-2 0  9999
2 69696  97.2834  46.5716 0001225 101.4679 258.6724 15.75245600  3707
STARLINK-37976          
1 69697U 26145W   26199.51897024  .00188398  00000+0  12340-2 0  9996
2 69697  97.2841  46.5763 0001151 104.1940 255.9454 15.75232776  3707
STARLINK-37912          
1 69698U 26145X   26199.51791194  .00191740  00000+0  12546-2 0  9991
2 69698  97.2840  46.5784 0000915 115.9651 244.1708 15.75248002  3707
STARLINK-37974          
1 69699U 26145Y   26199.83484593  .00130903  00000+0  86438-3 0  9995
2 69699  97.2851  46.9126 0001710  97.0709 263.0751 15.75209258  3755
STARLINK-37955          
1 69700U 26145Z   26199.83237513  .00140820  00000+0  92954-3 0  9995
2 69700  97.2847  46.9164 0001645 102.5903 257.5546 15.75188800  3759
STRIX-8                 
1 69701U 26146A   26199.80391706  .00002247  00000+0  17136-3 0  9998
2 69701  41.9906 353.1022 0006670  48.6201 311.5198 15.04452047  3328
ELECTRON R/B            
1 69702U 26146B   26198.76604655  .00396064  57822-4  92609-3 0  9993
2 69702  42.0718 346.7898 0161566  38.4259 322.7976 15.77324602  3319
ELECTRON KICK STAGE R/B 
1 69703U 26146C   26199.79637541  .00001832  00000+0  14038-3 0  9995
2 69703  41.9888 353.0412 0008540  49.1820 310.9747 15.04958126  3324
STARLINK-38055          
1 69704U 26147A   26199.84070022  .00195521  00000+0  99546-3 0  9994
2 69704  97.2833 236.4382 0001056  75.8236 284.3150 15.80889155  4435
STARLINK-37898          
1 69705U 26147B   26199.83986345  .00151898  00000+0  77733-3 0  9991
2 69705  97.2839 236.4396 0001491  70.3240 289.8189 15.80891461  4430
STARLINK-37970          
1 69706U 26147C   26199.58591950  .00149659  00000+0  76917-3 0  9993
2 69706  97.2825 236.1724 0001249  61.2460 298.8934 15.80803510  4393
STARLINK-37975          
1 69707U 26147D   26199.58516556  .00226889  00000+0  11530-2 0  9993
2 69707  97.2836 236.1738 0000815  52.4354 307.6988 15.80849322  4392
STARLINK-37972          
1 69708U 26147E   26199.58441801  .00150813  00000+0  77452-3 0  9993
2 69708  97.2831 236.1754 0001654  71.7291 288.4157 15.80816421  4390
